IRIDIUM 151             
1 43074U 17083E   26061.90045329  .00000061  00000+0  14674-4 0  9996
2 43074  86.4015   6.4705 0002160  87.1856 272.9587 14.34218003428909
IRIDIUM 134             
1 43075U 17083F   26061.93850869  .00000036  00000+0  58337-5 0  9990
2 43075  86.4020   6.4613 0002025  85.1282 275.0145 14.34217794428871
IRIDIUM 137             
1 43076U 17083G   26061.88142547  .00000049  00000+0  10333-4 0  9999
2 43076  86.4018   6.5754 0002287  97.1760 262.9696 14.34218011428936
IRIDIUM 141             
1 43077U 17083H   26061.87509591  .00000332  00000+0  11133-3 0  9998
2 43077  86.4014   6.4151 0002243  82.9831 277.1620 14.34219785428930
IRIDIUM 153             
1 43078U 17083J   26061.82726190  .00000061  00000+0  14551-4 0  9997
2 43078  86.4015 334.9487 0002168  77.6195 282.5244 14.34217875430037
IRIDIUM 131             
1 43079U 17083K   26061.93216595  .00000332  00000+0  11141-3 0  9995
2 43079  86.4020   6.5701 0002328  85.4480 274.6982 14.34216421428873
IRIDIUM 144             
1 43249U 18030A   26061.83360423 -.00000054  00000+0 -26284-4 0  9994
2 43249  86.4011 334.8777 0001922  85.9090 274.2326 14.34217415414892
IRIDIUM 149             
1 43250U 18030B   26061.83994678  .00000174  00000+0  55144-4 0  9999
2 43250  86.4015 334.8434 0002163  83.2570 276.8872 14.34218295414914
IRIDIUM 157             
1 43251U 18030C   26061.78920585  .00000125  00000+0  37592-4 0  9993
2 43251  86.4016 334.9156 0002159  85.0187 275.1255 14.34218241414881
IRIDIUM 140             
1 43252U 18030D   26061.80823393  .00000024  00000+0  14992-5 0  9994
2 43252  86.4015 334.9204 0002053  83.3465 276.7965 14.34217693414940
IRIDIUM 145             
1 43253U 18030E   26061.79554771  .00000192  00000+0  61332-4 0  9999
2 43253  86.4016 334.8982 0001864  92.4949 267.6461 14.34218134414874
IRIDIUM 146             
1 43254U 18030F   26061.84628896  .00000334  00000+0  11218-3 0  9991
2 43254  86.4016 334.8895 0002082  88.9187 271.2248 14.34218807414898
IRIDIUM 148             
1 43255U 18030G   26061.81457599  .00000275  00000+0  91065-4 0  9992
2 43255  86.4016 334.9441 0002149  86.3415 273.8026 14.34218941414922
IRIDIUM 142             
1 43256U 18030H   26061.85263127  .00000083  00000+0  22630-4 0  9998
2 43256  86.4014 334.8213 0001878  91.8223 268.3188 14.34218123414899
IRIDIUM 150             
1 43257U 18030J   26061.82091723  .00000275  00000+0  91162-4 0  9996
2 43257  86.4014 334.9471 0001960  84.5612 275.5808 14.34217758414915
IRIDIUM 143             
1 43258U 18030K   26061.80189084  .00000127  00000+0  38136-4 0  9991
2 43258  86.4018 335.0434 0001990  88.3328 271.8096 14.34218360414840
IRIDIUM 161             
1 43478U 18047C   26061.74615928  .00000380  00000+0  10694-3 0  9996
2 43478  86.4514 132.9839 0002540  93.1381 267.0111 14.43282298409786
