[{"OBJECT_NAME":"IRIDIUM 151","OBJECT_ID":"2017-083E","EPOCH":"2026-03-02T21:36:39.164256","MEAN_MOTION":14.34218003,"ECCENTRICITY":0.00021602,"INCLINATION":86.4015,"RA_OF_ASC_NODE":6.4705,"ARG_OF_PERICENTER":87.1856,"MEAN_ANOMALY":272.9587,"EPHEMERIS_TYPE":0,"CLASSIFICATION_TYPE":"U","NORAD_CAT_ID":43074,"ELEMENT_SET_NO":999,"REV_AT_EPOCH":42890,"BSTAR":1.4674142e-5,"MEAN_MOTION_DOT":6.1e-7,"MEAN_MOTION_DDOT":0},{"OBJECT_NAME":"IRIDIUM 134","OBJECT_ID":"2017-083F","EPOCH":"2026-03-02T22:31:27.150816","MEAN_MOTION":14.34217794,"ECCENTRICITY":0.00020254,"INCLINATION":86.402,"RA_OF_ASC_NODE":6.4613,"ARG_OF_PERICENTER":85.1282,"MEAN_ANOMALY":275.0145,"EPHEMERIS_TYPE":0,"CLASSIFICATION_TYPE":"U","NORAD_CAT_ID":43075,"ELEMENT_SET_NO":999,"REV_AT_EPOCH":42887,"BSTAR":5.833687e-6,"MEAN_MOTION_DOT":3.6e-7,"MEAN_MOTION_DDOT":0},{"OBJECT_NAME":"IRIDIUM 137","OBJECT_ID":"2017-083G","EPOCH":"2026-03-02T21:09:15.160608","MEAN_MOTION":14.34218011,"ECCENTRICITY":0.00022873,"INCLINATION":86.4018,"RA_OF_ASC_NODE":6.5754,"ARG_OF_PERICENTER":97.176,"MEAN_ANOMALY":262.9696,"EPHEMERIS_TYPE":0,"CLASSIFICATION_TYPE":"U","NORAD_CAT_ID":43076,"ELEMENT_SET_NO":999,"REV_AT_EPOCH":42893,"BSTAR":1.0332724e-5,"MEAN_MOTION_DOT":4.9e-7,"MEAN_MOTION_DDOT":0},{"OBJECT_NAME":"IRIDIUM 141","OBJECT_ID":"2017-083H","EPOCH":"2026-03-02T21:00:08.286624","MEAN_MOTION":14.34219785,"ECCENTRICITY":0.00022438,"INCLINATION":86.4014,"RA_OF_ASC_NODE":6.4151,"ARG_OF_PERICENTER":82.9831,"MEAN_ANOMALY":277.162,"EPHEMERIS_TYPE":0,"CLASSIFICATION_TYPE":"U","NORAD_CAT_ID":43077,"ELEMENT_SET_NO":999,"REV_AT_EPOCH":42893,"BSTAR":0.0001113296,"MEAN_MOTION_DOT":3.32e-6,"MEAN_MOTION_DDOT":0},{"OBJECT_NAME":"IRIDIUM 153","OBJECT_ID":"2017-083J","EPOCH":"2026-03-02T19:51:15.428160","MEAN_MOTION":14.34217875,"ECCENTRICITY":0.00021684,"INCLINATION":86.4015,"RA_OF_ASC_NODE":334.9487,"ARG_OF_PERICENTER":77.6195,"MEAN_ANOMALY":282.5244,"EPHEMERIS_TYPE":0,"CLASSIFICATION_TYPE":"U","NORAD_CAT_ID":43078,"ELEMENT_SET_NO":999,"REV_AT_EPOCH":43003,"BSTAR":1.4551361e-5,"MEAN_MOTION_DOT":6.1e-7,"MEAN_MOTION_DDOT":0},{"OBJECT_NAME":"IRIDIUM 131","OBJECT_ID":"2017-083K","EPOCH":"2026-03-02T22:22:19.138080","MEAN_MOTION":14.34216421,"ECCENTRICITY":0.00023289,"INCLINATION":86.402,"RA_OF_ASC_NODE":6.5701,"ARG_OF_PERICENTER":85.448,"MEAN_ANOMALY":274.6982,"EPHEMERIS_TYPE":0,"CLASSIFICATION_TYPE":"U","NORAD_CAT_ID":43079,"ELEMENT_SET_NO":999,"REV_AT_EPOCH":42887,"BSTAR":0.00011140561,"MEAN_MOTION_DOT":3.32e-6,"MEAN_MOTION_DDOT":0},{"OBJECT_NAME":"IRIDIUM 144","OBJECT_ID":"2018-030A","EPOCH":"2026-03-02T20:00:23.405472","MEAN_MOTION":14.34217415,"ECCENTRICITY":0.00019225,"INCLINATION":86.4011,"RA_OF_ASC_NODE":334.8777,"ARG_OF_PERICENTER":85.909,"MEAN_ANOMALY":274.2326,"EPHEMERIS_TYPE":0,"CLASSIFICATION_TYPE":"U","NORAD_CAT_ID":43249,"ELEMENT_SET_NO":999,"REV_AT_EPOCH":41489,"BSTAR":-2.6283993e-5,"MEAN_MOTION_DOT":-5.4e-7,"MEAN_MOTION_DDOT":0},{"OBJECT_NAME":"IRIDIUM 149","OBJECT_ID":"2018-030B","EPOCH":"2026-03-02T20:09:31.401792","MEAN_MOTION":14.34218295,"ECCENTRICITY":0.00021636,"INCLINATION":86.4015,"RA_OF_ASC_NODE":334.8434,"ARG_OF_PERICENTER":83.257,"MEAN_ANOMALY":276.8872,"EPHEMERIS_TYPE":0,"CLASSIFICATION_TYPE":"U","NORAD_CAT_ID":43250,"ELEMENT_SET_NO":999,"REV_AT_EPOCH":41491,"BSTAR":5.514439e-5,"MEAN_MOTION_DOT":1.74e-6,"MEAN_MOTION_DDOT":0},{"OBJECT_NAME":"IRIDIUM 157","OBJECT_ID":"2018-030C","EPOCH":"2026-03-02T18:56:27.385440","MEAN_MOTION":14.34218241,"ECCENTRICITY":0.00021598,"INCLINATION":86.4016,"RA_OF_ASC_NODE":334.9156,"ARG_OF_PERICENTER":85.0187,"MEAN_ANOMALY":275.1255,"EPHEMERIS_TYPE":0,"CLASSIFICATION_TYPE":"U","NORAD_CAT_ID":43251,"ELEMENT_SET_NO":999,"REV_AT_EPOCH":41488,"BSTAR":3.7592311e-5,"MEAN_MOTION_DOT":1.25e-6,"MEAN_MOTION_DDOT":0},{"OBJECT_NAME":"IRIDIUM 140","OBJECT_ID":"2018-030D","EPOCH":"2026-03-02T19:23:51.411552","MEAN_MOTION":14.34217693,"ECCENTRICITY":0.00020536,"INCLINATION":86.4015,"RA_OF_ASC_NODE":334.9204,"ARG_OF_PERICENTER":83.3465,"MEAN_ANOMALY":276.7965,"EPHEMERIS_TYPE":0,"CLASSIFICATION_TYPE":"U","NORAD_CAT_ID":43252,"ELEMENT_SET_NO":999,"REV_AT_EPOCH":41494,"BSTAR":1.499174e-6,"MEAN_MOTION_DOT":2.4e-7,"MEAN_MOTION_DDOT":0},{"OBJECT_NAME":"IRIDIUM 145","OBJECT_ID":"2018-030E","EPOCH":"2026-03-02T19:05:35.322144","MEAN_MOTION":14.34218134,"ECCENTRICITY":0.00018644,"INCLINATION":86.4016,"RA_OF_ASC_NODE":334.8982,"ARG_OF_PERICENTER":92.4949,"MEAN_ANOMALY":267.6461,"EPHEMERIS_TYPE":0,"CLASSIFICATION_TYPE":"U","NORAD_CAT_ID":43253,"ELEMENT_SET_NO":999,"REV_AT_EPOCH":41487,"BSTAR":6.1332172e-5,"MEAN_MOTION_DOT":1.92e-6,"MEAN_MOTION_DDOT":0},{"OBJECT_NAME":"IRIDIUM 146","OBJECT_ID":"2018-030F","EPOCH":"2026-03-02T20:18:39.366144","MEAN_MOTION":14.34218807,"ECCENTRICITY":0.00020824,"INCLINATION":86.4016,"RA_OF_ASC_NODE":334.8895,"ARG_OF_PERICENTER":88.9187,"MEAN_ANOMALY":271.2248,"EPHEMERIS_TYPE":0,"CLASSIFICATION_TYPE":"U","NORAD_CAT_ID":43254,"ELEMENT_SET_NO":999,"REV_AT_EPOCH":41489,"BSTAR":0.00011217606,"MEAN_MOTION_DOT":3.34e-6,"MEAN_MOTION_DDOT":0},{"OBJECT_NAME":"IRIDIUM 148","OBJECT_ID":"2018-030G","EPOCH":"2026-03-02T19:32:59.365536","MEAN_MOTION":14.34218941,"ECCENTRICITY":0.00021496,"INCLINATION":86.4016,"RA_OF_ASC_NODE":334.9441,"ARG_OF_PERICENTER":86.3415,"MEAN_ANOMALY":273.8026,"EPHEMERIS_TYPE":0,"CLASSIFICATION_TYPE":"U","NORAD_CAT_ID":43255,"ELEMENT_SET_NO":999,"REV_AT_EPOCH":41492,"BSTAR":9.1064758e-5,"MEAN_MOTION_DOT":2.75e-6,"MEAN_MOTION_DDOT":0},{"OBJECT_NAME":"IRIDIUM 142","OBJECT_ID":"2018-030H","EPOCH":"2026-03-02T20:27:47.341728","MEAN_MOTION":14.34218123,"ECCENTRICITY":0.00018789,"INCLINATION":86.4014,"RA_OF_ASC_NODE":334.8213,"ARG_OF_PERICENTER":91.8223,"MEAN_ANOMALY":268.3188,"EPHEMERIS_TYPE":0,"CLASSIFICATION_TYPE":"U","NORAD_CAT_ID":43256,"ELEMENT_SET_NO":999,"REV_AT_EPOCH":41489,"BSTAR":2.2630031e-5,"MEAN_MOTION_DOT":8.3e-7,"MEAN_MOTION_DDOT":0},{"OBJECT_NAME":"IRIDIUM 150","OBJECT_ID":"2018-030J","EPOCH":"2026-03-02T19:42:07.248672","MEAN_MOTION":14.34217758,"ECCENTRICITY":0.00019605,"INCLINATION":86.4014,"RA_OF_ASC_NODE":334.9471,"ARG_OF_PERICENTER":84.5612,"MEAN_ANOMALY":275.5808,"EPHEMERIS_TYPE":0,"CLASSIFICATION_TYPE":"U","NORAD_CAT_ID":43257,"ELEMENT_SET_NO":999,"REV_AT_EPOCH":41491,"BSTAR":9.1161992e-5,"MEAN_MOTION_DOT":2.75e-6,"MEAN_MOTION_DDOT":0},{"OBJECT_NAME":"IRIDIUM 143","OBJECT_ID":"2018-030K","EPOCH":"2026-03-02T19:14:43.368576","MEAN_MOTION":14.3421836,"ECCENTRICITY":0.00019905,"INCLINATION":86.4018,"RA_OF_ASC_NODE":335.0434,"ARG_OF_PERICENTER":88.3328,"MEAN_ANOMALY":271.8096,"EPHEMERIS_TYPE":0,"CLASSIFICATION_TYPE":"U","NORAD_CAT_ID":43258,"ELEMENT_SET_NO":999,"REV_AT_EPOCH":41484,"BSTAR":3.8135905e-5,"MEAN_MOTION_DOT":1.27e-6,"MEAN_MOTION_DDOT":0},{"OBJECT_NAME":"IRIDIUM 161","OBJECT_ID":"2018-047C","EPOCH":"2026-03-02T17:54:28.161792","MEAN_MOTION":14.43282298,"ECCENTRICITY":0.00025403,"INCLINATION":86.4514,"RA_OF_ASC_NODE":132.9839,"ARG_OF_PERICENTER":93.1381,"MEAN_ANOMALY":267.0111,"EPHEMERIS_TYPE":0,"CLASSIFICATION_TYPE":"U","NORAD_CAT_ID":43478,"ELEMENT_SET_NO":999,"REV_AT_EPOCH":40978,"BSTAR":0.00010693562,"MEAN_MOTION_DOT":3.8e-6,"MEAN_MOTION_DDOT":0}]
